OBJECT_NAME,OBJECT_ID,EPOCH,MEAN_MOTION,ECCENTRICITY,INCLINATION,RA_OF_ASC_NODE,ARG_OF_PERICENTER,MEAN_ANOMALY,EPHEMERIS_TYPE,CLASSIFICATION_TYPE,NORAD_CAT_ID,ELEMENT_SET_NO,REV_AT_EPOCH,BSTAR,MEAN_MOTION_DOT,MEAN_MOTION_DDOT
SL-14 R/B,1990-018B,2026-07-14T03:35:17.621664,14.82233700,.0017105,82.5218,104.9076,40.1167,320.1307,0,U,20511,999,94131,.24121E-4,.217E-5,0
HST,1990-037B,2026-07-13T11:30:45.237600,15.31050307,.00022,28.4725,260.8360,88.2424,271.8424,0,U,20580,999,79260,.1146E-3,.3768E-4,0
SL-16 R/B,1990-046B,2026-07-14T00:33:00.389088,14.15024113,.0012415,70.9985,32.5861,116.3522,243.8877,0,U,20625,999,86626,.13192E-3,.208E-5,0
COSMOS 2084,1990-055A,2026-07-14T05:10:28.415424,15.06221867,.0007956,62.7884,263.8314,317.1434,42.9046,0,U,20663,999,95537,.74394E-4,.893E-5,0
SL-6 R/B(2),1990-055D,2026-07-14T04:12:31.749408,15.04085524,.0044975,62.7804,183.5316,8.8774,351.3110,0,U,20666,999,95721,.8712E-4,.1028E-4,0
SL-8 R/B,1990-078B,2026-07-13T22:27:52.191936,14.93548341,.0343701,82.9034,137.4513,307.8233,49.2328,0,U,20775,999,82811,.31152E-3,.10995E-3,0
SL-8 R/B,1991-006B,2026-07-14T04:00:19.226880,13.77509072,.0023487,82.9409,75.9613,43.2694,69.3106,0,U,21088,999,78148,.74294E-4,.89E-6,0
OKEAN-3,1991-039A,2026-07-14T03:00:42.221952,15.05430787,.0012314,82.5141,214.2557,258.7363,101.2480,0,U,21397,999,88405,.11815E-3,.1726E-4,0
COSMOS 2151,1991-042A,2026-07-14T03:14:01.114368,15.00511517,.0012068,82.4980,321.6742,359.1393,0.9808,0,U,21422,999,88215,.49755E-4,.655E-5,0
SL-14 R/B,1991-042B,2026-07-14T03:52:58.332864,14.81917700,.0016885,82.4932,101.6006,180.2914,179.8293,0,U,21423,999,87180,.20198E-4,.184E-5,0
ERS-1,1991-050A,2026-07-14T01:32:21.854976,14.39532490,.0031849,98.7797,216.4182,185.1219,174.9646,0,U,21574,999,83391,.62776E-4,.151E-5,0
ARIANE 40 R/B,1991-050F,2026-07-14T02:13:13.238112,14.42971532,.0004205,98.1864,242.4594,63.8235,296.3388,0,U,21610,999,83722,.50218E-4,.126E-5,0
INTERCOSMOS 25,1991-086A,2026-07-14T02:27:45.796032,12.12239770,.1484519,82.6010,233.5222,204.2831,148.0759,0,U,21819,999,51200,.47665E-4,.254E-5,0
SL-8 R/B,1992-008B,2026-07-14T00:45:28.316736,13.75983585,.003561,82.9271,173.8284,139.7797,284.5316,0,U,21876,999,72679,.89563E-4,.103E-5,0
SL-8 R/B,1992-020B,2026-07-14T02:58:14.485728,13.75550278,.0027984,82.9285,59.8465,306.7221,167.5087,0,U,21938,999,71851,.20388E-4,.35E-6,0
USA 81,1992-023A,2026-07-14T04:03:59.634144,14.32404781,.0002034,85.0051,58.4309,65.0650,295.0754,0,U,21949,999,11289,.34052E-4,.112E-5,0
COSMOS 2219,1992-076A,2026-07-14T03:23:44.352384,14.14109061,.0018204,71.0613,113.7262,359.0696,1.0390,0,U,22219,999,73625,-.81025E-4,-.202E-5,0
SL-16 R/B,1992-076B,2026-07-14T04:52:50.913120,14.16877072,.0015036,71.0005,281.8709,263.4058,121.3330,0,U,22220,999,73975,.11924E-3,.191E-5,0
COSMOS 2221,1992-080A,2026-07-13T22:48:37.800864,14.96601924,.0015637,82.5045,158.1228,124.0036,236.2674,0,U,22236,999,79967,.71659E-4,.844E-5,0
SL-16 R/B,1992-093B,2026-07-14T04:01:10.354944,14.15466192,.0002321,71.0219,98.7528,137.5600,222.5703,0,U,22285,999,73105,-.86231E-4,-.216E-5,0
COSMOS 2228,1992-094A,2026-07-14T03:32:04.006176,14.97673649,.0016245,82.5188,116.2194,232.9438,127.0300,0,U,22286,999,79498,.73698E-4,.891E-5,0
SL-16 R/B,1993-016B,2026-07-13T17:25:56.601120,14.15312008,.0008904,71.0084,310.4657,140.6294,219.5478,0,U,22566,999,72000,.86815E-4,.122E-5,0
COSMOS 2242,1993-024A,2026-07-14T01:15:15.067008,14.96982913,.0014598,82.5198,145.8402,236.8563,123.1260,0,U,22626,999,79929,.75322E-4,.894E-5,0
SL-16 R/B,1993-059B,2026-07-14T04:03:42.939936,14.17249694,.0016594,70.9902,104.4043,10.0532,350.0920,0,U,22803,999,69745,-.7173E-4,-.193E-5,0
ARIANE 40 R/B,1993-061H,2026-07-14T03:48:55.667232,14.32918283,.0009478,98.4807,261.4541,269.1596,90.8503,0,U,22830,999,71221,.43385E-4,.75E-6,0
COSMOS 2278,1994-023A,2026-07-14T04:36:53.928576,14.14393228,.0009698,71.0524,270.4247,207.1113,152.9504,0,U,23087,999,66269,.38463E-5,-.4E-6,0
SL-16 R/B,1994-023B,2026-07-14T04:22:04.234080,14.15024185,.0001426,70.9983,165.2394,132.1057,228.0187,0,U,23088,999,66398,.55885E-4,.61E-6,0
SL-16 R/B,1994-074B,2026-07-14T01:23:32.056224,14.79523761,.0007075,97.6987,220.6583,157.7125,228.7603,0,U,23343,999,70593,.3292E-4,.197E-5,0
SL-16 R/B,1994-077B,2026-07-14T02:44:31.155072,14.15574410,.0004092,70.9822,86.5138,304.1978,55.8756,0,U,23405,999,63412,-.45309E-4,-.137E-5,0
ARIANE 40+ R/B,1995-021B,2026-07-14T03:43:01.696800,14.39847245,.0007876,98.4401,264.8388,119.1711,294.3175,0,U,23561,999,63744,.5181E-4,.119E-5,0
SL-16 R/B,1995-058B,2026-07-14T04:45:06.244416,14.15508447,.0014609,71.0210,274.6492,284.0335,75.9164,0,U,23705,999,58575,.83453E-4,.116E-5,0
