SL-14 R/B               
1 20511U 90018B   26195.14950951  .00000217  00000+0  24121-4 0  9997
2 20511  82.5218 104.9076 0017105  40.1167 320.1307 14.82233700941311
HST                     
1 20580U 90037B   26194.47969025  .00003768  00000+0  11460-3 0  9996
2 20580  28.4725 260.8360 0002200  88.2424 271.8424 15.31050307792609
SL-16 R/B               
1 20625U 90046B   26195.02292117  .00000208  00000+0  13192-3 0  9999
2 20625  70.9985  32.5861 0012415 116.3522 243.8877 14.15024113866262
COSMOS 2084             
1 20663U 90055A   26195.21560666  .00000893  00000+0  74394-4 0  9991
2 20663  62.7884 263.8314 0007956 317.1434  42.9046 15.06221867955373
SL-6 R/B(2)             
1 20666U 90055D   26195.17536747  .00001028  00000+0  87120-4 0  9994
2 20666  62.7804 183.5316 0044975   8.8774 351.3110 15.04085524957211
SL-8 R/B                
1 20775U 90078B   26194.93602074  .00010995  00000+0  31152-3 0  9996
2 20775  82.9034 137.4513 0343701 307.8233  49.2328 14.93548341828117
SL-8 R/B                
1 21088U 91006B   26195.16688920  .00000089  00000+0  74294-4 0  9994
2 21088  82.9409  75.9613 0023487  43.2694  69.3106 13.77509072781480
OKEAN-3                 
1 21397U 91039A   26195.12548868  .00001726  00000+0  11815-3 0  9993
2 21397  82.5141 214.2557 0012314 258.7363 101.2480 15.05430787884057
COSMOS 2151             
1 21422U 91042A   26195.13473512  .00000655  00000+0  49755-4 0  9995
2 21422  82.4980 321.6742 0012068 359.1393   0.9808 15.00511517882154
SL-14 R/B               
1 21423U 91042B   26195.16178626  .00000184  00000+0  20198-4 0  9994
2 21423  82.4932 101.6006 0016885 180.2914 179.8293 14.81917700871800
ERS-1                   
1 21574U 91050A   26195.06414184  .00000151  00000+0  62776-4 0  9993
2 21574  98.7797 216.4182 0031849 185.1219 174.9646 14.39532490833915
ARIANE 40 R/B           
1 21610U 91050F   26195.09251433  .00000126  00000+0  50218-4 0  9993
2 21610  98.1864 242.4594 0004205  63.8235 296.3388 14.42971532837225
INTERCOSMOS 25          
1 21819U 91086A   26195.10261338  .00000254  00000+0  47665-4 0  9994
2 21819  82.6010 233.5222 1484519 204.2831 148.0759 12.12239770512007
SL-8 R/B                
1 21876U 92008B   26195.03157774  .00000103  00000+0  89563-4 0  9998
2 21876  82.9271 173.8284 0035610 139.7797 284.5316 13.75983585726790
SL-8 R/B                
1 21938U 92020B   26195.12377877  .00000035  00000+0  20388-4 0  9993
2 21938  82.9285  59.8465 0027984 306.7221 167.5087 13.75550278718516
USA 81                  
1 21949U 92023A   26195.16944021  .00000112  00000+0  34052-4 0  9992
2 21949  85.0051  58.4309 0002034  65.0650 295.0754 14.32404781112893
COSMOS 2219             
1 22219U 92076A   26195.14148556 -.00000202  00000+0 -81025-4 0  9992
2 22219  71.0613 113.7262 0018204 359.0696   1.0390 14.14109061736254
SL-16 R/B               
1 22220U 92076B   26195.20336705  .00000191  00000+0  11924-3 0  9991
2 22220  71.0005 281.8709 0015036 263.4058 121.3330 14.16877072739758
COSMOS 2221             
1 22236U 92080A   26194.95043751  .00000844  00000+0  71659-4 0  9997
2 22236  82.5045 158.1228 0015637 124.0036 236.2674 14.96601924799676
SL-16 R/B               
1 22285U 92093B   26195.16748096 -.00000216  00000+0 -86231-4 0  9990
2 22285  71.0219  98.7528 0002321 137.5600 222.5703 14.15466192731056
COSMOS 2228             
1 22286U 92094A   26195.14726859  .00000891  00000+0  73698-4 0  9993
2 22286  82.5188 116.2194 0016245 232.9438 127.0300 14.97673649794983
SL-16 R/B               
1 22566U 93016B   26194.72634955  .00000122  00000+0  86815-4 0  9999
2 22566  71.0084 310.4657 0008904 140.6294 219.5478 14.15312008720006
COSMOS 2242             
1 22626U 93024A   26195.05225772  .00000894  00000+0  75322-4 0  9992
2 22626  82.5198 145.8402 0014598 236.8563 123.1260 14.96982913799290
SL-16 R/B               
1 22803U 93059B   26195.16924699 -.00000193  00000+0 -71730-4 0  9996
2 22803  70.9902 104.4043 0016594  10.0532 350.0920 14.17249694697453
ARIANE 40 R/B           
1 22830U 93061H   26195.15897763  .00000075  00000+0  43385-4 0  9991
2 22830  98.4807 261.4541 0009478 269.1596  90.8503 14.32918283712211
COSMOS 2278             
1 23087U 94023A   26195.19229084 -.00000040  00000+0  38463-5 0  9999
2 23087  71.0524 270.4247 0009698 207.1113 152.9504 14.14393228662696
SL-16 R/B               
1 23088U 94023B   26195.18199345  .00000061  00000+0  55885-4 0  9993
2 23088  70.9983 165.2394 0001426 132.1057 228.0187 14.15024185663982
SL-16 R/B               
1 23343U 94074B   26195.05800991  .00000197  00000+0  32920-4 0  9990
2 23343  97.6987 220.6583 0007075 157.7125 228.7603 14.79523761705933
SL-16 R/B               
1 23405U 94077B   26195.11424948 -.00000137  00000+0 -45309-4 0  9994
2 23405  70.9822  86.5138 0004092 304.1978  55.8756 14.15574410634126
ARIANE 40+ R/B          
1 23561U 95021B   26195.15488075  .00000119  00000+0  51810-4 0  9994
2 23561  98.4401 264.8388 0007876 119.1711 294.3175 14.39847245637445
SL-16 R/B               
1 23705U 95058B   26195.19798894  .00000116  00000+0  83453-4 0  9996
2 23705  71.0210 274.6492 0014609 284.0335  75.9164 14.15508447585750
